QIANFAN-65              
1 62795U 25016L   26004.24602710  .00000203  00000+0  29527-3 0  9999
2 62795  88.9761 100.7344 0012156 276.4570  83.5197 13.50979956 50287
QIANFAN-66              
1 62796U 25016M   26004.27483905  .00000208  00000+0  30319-3 0  9992
2 62796  88.9780 100.7060 0013301 271.5177  88.4450 13.50984926 50331
QIANFAN-67              
1 62797U 25016N   26004.27901927  .00000211  00000+0  30815-3 0  9997
2 62797  88.9771 100.7289 0013219 279.3423  80.6234 13.50989080 50300
QIANFAN-68              
1 62798U 25016P   26004.27068764  .00000195  00000+0  28327-3 0  9997
2 62798  88.9774 100.7758 0013277 277.3573  82.6069 13.50980987 50285
QIANFAN-69              
1 62799U 25016Q   26004.28714186  .00000228  00000+0  33526-3 0  9999
2 62799  88.9753 100.6387 0014026 278.6660  81.2902 13.50981433 50327
QIANFAN-70              
1 62800U 25016R   26004.30370158  .00000203  00000+0  29641-3 0  9998
2 62800  88.9774 100.7803 0013720 267.7201  92.2379 13.50985191 50287
QIANFAN-71              
1 62801U 25016S   26004.29950706  .00000205  00000+0  29887-3 0  9994
2 62801  88.9768 100.7588 0013920 282.6351  77.3243 13.50984650 50288
QIANFAN-72              
1 62802U 25016T   26004.31595701  .00000200  00000+0  29152-3 0  9998
2 62802  88.9759 100.7682 0017175 290.6937  69.2372 13.50984428 50274
